[{"OBJECT_NAME":"STARLINK-3743","OBJECT_ID":"2022-029AG","EPOCH":"2026-03-09T09:44:01.241952","MEAN_MOTION":15.08837415,"ECCENTRICITY":0.00013949,"INCLINATION":53.2172,"RA_OF_ASC_NODE":80.3961,"ARG_OF_PERICENTER":96.216,"MEAN_ANOMALY":263.8991,"EPHEMERIS_TYPE":0,"CLASSIFICATION_TYPE":"U","NORAD_CAT_ID":52118,"ELEMENT_SET_NO":999,"REV_AT_EPOCH":22074,"BSTAR":5.5759885e-5,"MEAN_MOTION_DOT":6.0e-6,"MEAN_MOTION_DDOT":0},{"OBJECT_NAME":"CSC-1","OBJECT_ID":"2023-155G","EPOCH":"2026-03-09T17:46:02.342496","MEAN_MOTION":15.1003596,"ECCENTRICITY":0.00075041,"INCLINATION":97.5446,"RA_OF_ASC_NODE":139.7305,"ARG_OF_PERICENTER":212.9992,"MEAN_ANOMALY":147.077,"EPHEMERIS_TYPE":0,"CLASSIFICATION_TYPE":"U","NORAD_CAT_ID":58022,"ELEMENT_SET_NO":999,"REV_AT_EPOCH":13272,"BSTAR":0.00054556609,"MEAN_MOTION_DOT":8.819e-5,"MEAN_MOTION_DDOT":0}]
