STARLINK-3743           
1 52118U 22029AG  26068.40556993  .00000600  00000+0  55760-4 0  9997
2 52118  53.2172  80.3961 0001394  96.2160 263.8991 15.08837415220742
CSC-1                   
1 58022U 23155G   26068.74030489  .00008819  00000+0  54557-3 0  9994
2 58022  97.5446 139.7305 0007504 212.9992 147.0770 15.10035960132723
